CCSDS_OMM_VERS = 2.0
CREATION_DATE  = 
ORIGINATOR     = 

OBJECT_NAME    = SL-14 R/B
OBJECT_ID      = 1986-046B
CENTER_NAME    = EARTH
REF_FRAME      = TEME
TIME_SYSTEM    = UTC
MEAN_ELEMENT_THEORY = SGP/SGP4

EPOCH          = 2026-01-15T09:27:15.304032
MEAN_MOTION    = 14.85527842
ECCENTRICITY   = .0024169
INCLINATION    = 82.4835
RA_OF_ASC_NODE = 130.5330
ARG_OF_PERICENTER = 46.8491
MEAN_ANOMALY   = 313.4740

EPHEMERIS_TYPE = 0
CLASSIFICATION_TYPE = U
NORAD_CAT_ID   = 16792
ELEMENT_SET_NO = 999
REV_AT_EPOCH   = 11849
BSTAR          = .36656E-4
MEAN_MOTION_DOT = .343E-5
MEAN_MOTION_DDOT = 0

CCSDS_OMM_VERS = 2.0
CREATION_DATE  = 
ORIGINATOR     = 

OBJECT_NAME    = SL-14 R/B
OBJECT_ID      = 1986-055B
CENTER_NAME    = EARTH
REF_FRAME      = TEME
TIME_SYSTEM    = UTC
MEAN_ELEMENT_THEORY = SGP/SGP4

EPOCH          = 2026-01-15T09:13:05.285280
MEAN_MOTION    = 14.85571579
ECCENTRICITY   = .0019762
INCLINATION    = 82.5206
RA_OF_ASC_NODE = 176.7574
ARG_OF_PERICENTER = 145.0145
MEAN_ANOMALY   = 238.4366

EPHEMERIS_TYPE = 0
CLASSIFICATION_TYPE = U
NORAD_CAT_ID   = 16882
ELEMENT_SET_NO = 999
REV_AT_EPOCH   = 11145
BSTAR          = .44002E-4
MEAN_MOTION_DOT = .406E-5
MEAN_MOTION_DDOT = 0

CCSDS_OMM_VERS = 2.0
CREATION_DATE  = 
ORIGINATOR     = 

OBJECT_NAME    = AJISAI (EGS)
OBJECT_ID      = 1986-061A
CENTER_NAME    = EARTH
REF_FRAME      = TEME
TIME_SYSTEM    = UTC
MEAN_ELEMENT_THEORY = SGP/SGP4

EPOCH          = 2026-01-15T11:16:02.612352
MEAN_MOTION    = 12.44514935
ECCENTRICITY   = .0011298
INCLINATION    = 50.0079
RA_OF_ASC_NODE = 257.0021
ARG_OF_PERICENTER = 150.6099
MEAN_ANOMALY   = 267.4653

EPHEMERIS_TYPE = 0
CLASSIFICATION_TYPE = U
NORAD_CAT_ID   = 16908
ELEMENT_SET_NO = 999
REV_AT_EPOCH   = 46137
BSTAR          = .19165E-3
MEAN_MOTION_DOT = -.7E-6
MEAN_MOTION_DDOT = 0

CCSDS_OMM_VERS = 2.0
CREATION_DATE  = 
ORIGINATOR     = 

OBJECT_NAME    = COSMOS 1812
OBJECT_ID      = 1987-003A
CENTER_NAME    = EARTH
REF_FRAME      = TEME
TIME_SYSTEM    = UTC
MEAN_ELEMENT_THEORY = SGP/SGP4

EPOCH          = 2026-01-15T02:48:53.278848
MEAN_MOTION    = 15.84097988
ECCENTRICITY   = .0002819
INCLINATION    = 82.4839
RA_OF_ASC_NODE = 255.6687
ARG_OF_PERICENTER = 49.8438
MEAN_ANOMALY   = 310.3078

EPHEMERIS_TYPE = 0
CLASSIFICATION_TYPE = U
NORAD_CAT_ID   = 17295
ELEMENT_SET_NO = 999
REV_AT_EPOCH   = 13592
BSTAR          = .45449E-3
MEAN_MOTION_DOT = .102594E-2
MEAN_MOTION_DDOT = 0

CCSDS_OMM_VERS = 2.0
CREATION_DATE  = 
ORIGINATOR     = 

OBJECT_NAME    = SL-14 R/B
OBJECT_ID      = 1987-024B
CENTER_NAME    = EARTH
REF_FRAME      = TEME
TIME_SYSTEM    = UTC
MEAN_ELEMENT_THEORY = SGP/SGP4

EPOCH          = 2026-01-15T09:06:17.876448
MEAN_MOTION    = 14.86067955
ECCENTRICITY   = .0019708
INCLINATION    = 82.5300
RA_OF_ASC_NODE = 142.8550
ARG_OF_PERICENTER = 78.4662
MEAN_ANOMALY   = 281.8766

EPHEMERIS_TYPE = 0
CLASSIFICATION_TYPE = U
NORAD_CAT_ID   = 17567
ELEMENT_SET_NO = 999
REV_AT_EPOCH   = 8021
BSTAR          = .38769E-4
MEAN_MOTION_DOT = .365E-5
MEAN_MOTION_DDOT = 0

CCSDS_OMM_VERS = 2.0
CREATION_DATE  = 
ORIGINATOR     = 

OBJECT_NAME    = COSMOS 1833
OBJECT_ID      = 1987-027A
CENTER_NAME    = EARTH
REF_FRAME      = TEME
TIME_SYSTEM    = UTC
MEAN_ELEMENT_THEORY = SGP/SGP4

EPOCH          = 2026-01-15T11:38:16.739808
MEAN_MOTION    = 14.13044241
ECCENTRICITY   = .0024134
INCLINATION    = 70.9192
RA_OF_ASC_NODE = 77.8442
ARG_OF_PERICENTER = 285.2009
MEAN_ANOMALY   = 74.6444

EPHEMERIS_TYPE = 0
CLASSIFICATION_TYPE = U
NORAD_CAT_ID   = 17589
ELEMENT_SET_NO = 999
REV_AT_EPOCH   = 280
BSTAR          = .18509E-3
MEAN_MOTION_DOT = .298E-5
MEAN_MOTION_DDOT = 0

CCSDS_OMM_VERS = 2.0
CREATION_DATE  = 
ORIGINATOR     = 

OBJECT_NAME    = SL-16 R/B
OBJECT_ID      = 1987-027B
CENTER_NAME    = EARTH
REF_FRAME      = TEME
TIME_SYSTEM    = UTC
MEAN_ELEMENT_THEORY = SGP/SGP4

EPOCH          = 2026-01-15T11:18:56.073312
MEAN_MOTION    = 14.17160368
ECCENTRICITY   = .0006448
INCLINATION    = 71.0033
RA_OF_ASC_NODE = 28.6371
ARG_OF_PERICENTER = 223.8020
MEAN_ANOMALY   = 136.2593

EPHEMERIS_TYPE = 0
CLASSIFICATION_TYPE = U
NORAD_CAT_ID   = 17590
ELEMENT_SET_NO = 999
REV_AT_EPOCH   = 780
BSTAR          = -.20378E-4
MEAN_MOTION_DOT = -.89E-6
MEAN_MOTION_DDOT = 0

CCSDS_OMM_VERS = 2.0
CREATION_DATE  = 
ORIGINATOR     = 

OBJECT_NAME    = SL-14 R/B
OBJECT_ID      = 1987-038B
CENTER_NAME    = EARTH
REF_FRAME      = TEME
TIME_SYSTEM    = UTC
MEAN_ELEMENT_THEORY = SGP/SGP4

EPOCH          = 2026-01-15T09:56:30.051744
MEAN_MOTION    = 14.85300997
ECCENTRICITY   = .0018884
INCLINATION    = 82.5025
RA_OF_ASC_NODE = 346.9801
ARG_OF_PERICENTER = 345.6201
MEAN_ANOMALY   = 14.4475

EPHEMERIS_TYPE = 0
CLASSIFICATION_TYPE = U
NORAD_CAT_ID   = 17912
ELEMENT_SET_NO = 999
REV_AT_EPOCH   = 7132
BSTAR          = .41536E-4
MEAN_MOTION_DOT = .382E-5
MEAN_MOTION_DDOT = 0

CCSDS_OMM_VERS = 2.0
CREATION_DATE  = 
ORIGINATOR     = 

OBJECT_NAME    = COSMOS 1844
OBJECT_ID      = 1987-041A
CENTER_NAME    = EARTH
REF_FRAME      = TEME
TIME_SYSTEM    = UTC
MEAN_ELEMENT_THEORY = SGP/SGP4

EPOCH          = 2026-01-15T08:44:13.299648
MEAN_MOTION    = 14.14537757
ECCENTRICITY   = .0028283
INCLINATION    = 70.8996
RA_OF_ASC_NODE = 146.6533
ARG_OF_PERICENTER = 103.5171
MEAN_ANOMALY   = 256.9104

EPHEMERIS_TYPE = 0
CLASSIFICATION_TYPE = U
NORAD_CAT_ID   = 17973
ELEMENT_SET_NO = 999
REV_AT_EPOCH   = 99604
BSTAR          = -.11202E-3
MEAN_MOTION_DOT = -.264E-5
MEAN_MOTION_DDOT = 0

CCSDS_OMM_VERS = 2.0
CREATION_DATE  = 
ORIGINATOR     = 

OBJECT_NAME    = SL-14 R/B
OBJECT_ID      = 1987-055B
CENTER_NAME    = EARTH
REF_FRAME      = TEME
TIME_SYSTEM    = UTC
MEAN_ELEMENT_THEORY = SGP/SGP4

EPOCH          = 2026-01-15T11:13:25.742784
MEAN_MOTION    = 14.85558766
ECCENTRICITY   = .002048
INCLINATION    = 82.4977
RA_OF_ASC_NODE = 39.1955
ARG_OF_PERICENTER = 185.2751
MEAN_ANOMALY   = 174.8253

EPHEMERIS_TYPE = 0
CLASSIFICATION_TYPE = U
NORAD_CAT_ID   = 18153
ELEMENT_SET_NO = 999
REV_AT_EPOCH   = 6203
BSTAR          = .34498E-4
MEAN_MOTION_DOT = .324E-5
MEAN_MOTION_DDOT = 0

CCSDS_OMM_VERS = 2.0
CREATION_DATE  = 
ORIGINATOR     = 

OBJECT_NAME    = COSMOS 1867
OBJECT_ID      = 1987-060A
CENTER_NAME    = EARTH
REF_FRAME      = TEME
TIME_SYSTEM    = UTC
MEAN_ELEMENT_THEORY = SGP/SGP4

EPOCH          = 2026-01-15T11:39:53.828352
MEAN_MOTION    = 14.31492631
ECCENTRICITY   = .0013864
INCLINATION    = 65.0112
RA_OF_ASC_NODE = 95.7005
ARG_OF_PERICENTER = 274.4001
MEAN_ANOMALY   = 85.5499

EPHEMERIS_TYPE = 0
CLASSIFICATION_TYPE = U
NORAD_CAT_ID   = 18187
ELEMENT_SET_NO = 999
REV_AT_EPOCH   = 1232
BSTAR          = .14908E-4
MEAN_MOTION_DOT = -.61E-6
MEAN_MOTION_DDOT = 0

CCSDS_OMM_VERS = 2.0
CREATION_DATE  = 
ORIGINATOR     = 

OBJECT_NAME    = SL-14 R/B
OBJECT_ID      = 1988-001B
CENTER_NAME    = EARTH
REF_FRAME      = TEME
TIME_SYSTEM    = UTC
MEAN_ELEMENT_THEORY = SGP/SGP4

EPOCH          = 2026-01-15T02:56:36.933216
MEAN_MOTION    = 14.85461311
ECCENTRICITY   = .0019399
INCLINATION    = 82.5114
RA_OF_ASC_NODE = 245.7495
ARG_OF_PERICENTER = 58.0309
MEAN_ANOMALY   = 302.2789

EPHEMERIS_TYPE = 0
CLASSIFICATION_TYPE = U
NORAD_CAT_ID   = 18749
ELEMENT_SET_NO = 999
REV_AT_EPOCH   = 3407
BSTAR          = .30856E-4
MEAN_MOTION_DOT = .291E-5
MEAN_MOTION_DDOT = 0

